STARLINK-1678           
1 46538U 20070G   22042.63576429  .00003415  00000+0  24796-3 0  9990
2 46538  53.0549  12.2614 0001721  66.2790 293.8379 15.06414832 75075
STARLINK-1684           
1 46539U 20070H   22042.57167520  .00208464  00000+0  16721-2 0  9991
2 46539  53.0488 354.2485 0000971  66.9249 293.1870 15.69859010 75333
STARLINK-1687           
1 46541U 20070K   22042.81452285  .00019339  00000+0  13122-2 0  9999
2 46541  53.0569 351.4563 0002116  65.3478 294.7731 15.06439685 75675
STARLINK-1692           
1 46542U 20070L   22042.28560268  .00002321  00000+0  17460-3 0  9995
2 46542  53.0548  13.8356 0001580  73.4832 286.6330 15.06408431 75311
STARLINK-1693           
1 46543U 20070M   22042.40354974  .00002213  00000+0  16736-3 0  9990
2 46543  53.0550  13.2971 0001662  47.6692 312.4437 15.06408026 75338
STARLINK-1694           
1 46544U 20070N   22042.59844403  .00013108  00000+0  89660-3 0  9993
2 46544  53.0548 357.4319 0001616  54.4405 305.6734 15.06426812 75586
STARLINK-1696           
1 46545U 20070P   22042.44041379  .00012090  00000+0  82854-3 0  9996
2 46545  53.0550  13.1510 0001437  68.1813 291.9328 15.06426605 75334
STARLINK-1697           
1 46546U 20070Q   22042.62470387  .00003766  00000+0  27139-3 0  9997
2 46546  53.0554  12.3060 0001752  62.3386 297.7781 15.06426156 75070
STARLINK-1698           
1 46547U 20070R   22042.32247972  .00014541  00000+0  99208-3 0  9996
2 46547  53.0552  13.6703 0001983  64.2836 295.8357 15.06435801 75349
STARLINK-1699           
1 46548U 20070S   22042.79793760  .00003877  00000+0  27889-3 0  9995
2 46548  53.0545  11.5414 0001451  66.8307 293.2835 15.06420168 75410
STARLINK-1700           
1 46549U 20070T   22042.42935272  .00003581  00000+0  25903-3 0  9999
2 46549  53.0541  13.1849 0001509  60.0498 300.0641 15.06422878 75331
STARLINK-1701           
1 46550U 20070U   22042.74634288  .00005372  00000+0  37907-3 0  9996
2 46550  53.0558  11.7722 0001831  76.2072 283.9121 15.06418387 75400
STARLINK-1649           
1 46552U 20070W   22042.83801937  .00005058  00000+0  35795-3 0  9999
2 46552  53.0548 356.3483 0001428  70.1972 289.9171 15.06424843 75558
STARLINK-1664           
1 46553U 20070X   22042.53438099  .00009904  00000+0  68231-3 0  9997
2 46553  53.0556 342.7218 0001666  74.3699 285.7473 15.06430118 75774
STARLINK-1671           
1 46554U 20070Y   22042.25565883  .00003173  00000+0  23176-3 0  9990
2 46554  53.0542 358.9659 0001683  76.7701 283.3475 15.06407908 75538
STARLINK-1676           
1 46556U 20070AA  22042.31509359  .00003053  00000+0  22371-3 0  9998
2 46556  53.0561  13.7140 0001682  67.4217 292.6950 15.06414487 75328
STARLINK-1679           
1 46557U 20070AB  22042.29251656  .00004698  00000+0  33388-3 0  9996
2 46557  53.0557 358.8075 0001700  73.7933 286.3243 15.06422468 75536
STARLINK-1680           
1 46558U 20070AC  22042.56527307  .00006914  00000+0  48240-3 0  9992
2 46558  53.0543 357.5728 0001529  64.2376 295.8771 15.06417231 75586
STARLINK-1681           
1 46559U 20070AD  22042.81913102  .00016922  00000+0  11509-2 0  9990
2 46559  53.0545 341.4369 0001589  68.3437 291.7721 15.06441476 75826
STARLINK-1706           
1 46560U 20070AE  22042.84539383  .00010763  00000+0  73966-3 0  9993
2 46560  53.0534 356.3217 0001562  65.7844 294.3308 15.06435974 75621
STARLINK-1709           
1 46561U 20070AF  22042.19668268  .00012032  00000+0  82473-3 0  9991
2 46561  53.0551 359.2438 0001307  67.3171 292.7956 15.06423058 75515
STARLINK-1714           
1 46562U 20070AG  22042.66338918  .00002024  00000+0  15467-3 0  9999
2 46562  53.0565 352.1450 0001477  74.2960 285.8192 15.06424142 75350
STARLINK-1730           
1 46563U 20070AH  22042.57863473  .00007482  00000+0  52036-3 0  9995
2 46563  53.0561 352.5108 0001663  60.7541 299.3615 15.06419470 75654
STARLINK-1733           
1 46564U 20070AJ  22042.56019102  .00002931  00000+0  21547-3 0  9994
2 46564  53.0574 352.6134 0001502  77.4118 282.7039 15.06418693 75658
STARLINK-1735           
1 46565U 20070AK  22042.80347728  .00004152  00000+0  29738-3 0  9997
2 46565  53.0562 351.5084 0001613  57.3335 302.7810 15.06413523 75375
STARLINK-1740           
1 46566U 20070AL  22042.78871848  .00000735  00000+0  68198-4 0  9997
2 46566  53.0541 351.5753 0001735  67.6313 292.4859 15.06430109 75356
STARLINK-1741           
1 46567U 20070AM  22042.55282497  .00007619  00000+0  52952-3 0  9997
2 46567  53.0545 352.6489 0001453  69.2797 290.8347 15.06421769 75648
STARLINK-1743           
1 46568U 20070AN  22042.81935321  .00188481  00000+0  27083-2 0  9991
2 46568  53.0504 327.1526 0010332 173.6297 186.4846 15.54900714 76048
STARLINK-1747           
1 46569U 20070AP  22042.56757733  .00002961  00000+0  21751-3 0  9998
2 46569  53.0549 352.5628 0001807  60.0107 300.1061 15.06415918 75349
STARLINK-1748           
1 46570U 20070AQ  22042.27638741  .00007671  00000+0  53310-3 0  9994
2 46570  53.0573 353.8713 0001672  56.4534 303.6614 15.06416333 75591
STARLINK-1753           
1 46571U 20070AR  22042.50029923  .00117232  00000+0  89027-3 0  9996
2 46571  53.0536 323.6774 0005578 118.4156 241.7424 15.71471614 76048
STARLINK-1531           
1 46572U 20070AS  22042.34089662  .00001973  00000+0  15127-3 0  9999
2 46572  53.0554  13.5963 0001792  58.7388 301.3777 15.06411122 75321
STARLINK-1650           
1 46573U 20070AT  22042.58370229  .00003841  00000+0  27654-3 0  9992
2 46573  53.0549 357.4887 0001661  70.4838 289.6330 15.06412903 75575
STARLINK-1660           
1 46574U 20070AU  22042.23723117 -.00000379  00000+0 -65460-5 0  9997
2 46574  53.0549 359.0545 0001670  64.2633 295.8529 15.06407339 75520
STARLINK-1675           
1 46575U 20070AV  22042.49200974  .00015385  00000+0  10484-2 0  9991
2 46575  53.0546 332.8762 0001495  66.2641 293.8505 15.06438595 75906
STARLINK-1677           
1 46576U 20070AW  22042.82696947  .00005366  00000+0  37868-3 0  9992
2 46576  53.0553 356.3975 0001730  52.2984 307.8162 15.06420521 75612
STARLINK-1682           
1 46577U 20070AX  22042.25934117  .00001688  00000+0  13218-3 0  9990
2 46577  53.0579 358.9596 0001453  58.3780 301.7351 15.06411818 75523
STARLINK-1683           
1 46578U 20070AY  22042.56755109  .00015088  00000+0  10287-2 0  9998
2 46578  53.0550 342.5772 0001372  71.1626 288.9511 15.06434558 75788
STARLINK-1705           
1 46579U 20070AZ  22042.57633571 -.00001013  00000+0 -49092-4 0  9991
2 46579  53.0550 357.5304 0001294  73.8283 286.2848 15.06398467 75576
STARLINK-1708           
1 46580U 20070BA  22042.35517753  .00007121  00000+0  49612-3 0  9993
2 46580  53.0549 358.5150 0001505  68.4093 291.7056 15.06427201 75548
STARLINK-1712           
1 46581U 20070BB  22042.58599826  .00000742  00000+0  68699-4 0  9999
2 46581  53.0593 352.4813 0001587  62.3866 297.7284 15.06418601 75642
STARLINK-1728           
1 46582U 20070BC  22042.83663992  .00015134  00000+0  10315-2 0  9995
2 46582  53.0577 351.3199 0001442  71.1944 288.9201 15.06443663 75686
STARLINK-1729           
1 46583U 20070BD  22042.75372605  .00000252  00000+0  35809-4 0  9997
2 46583  53.0536  11.7307 0001573  67.5187 292.5968 15.06406464 75402
STARLINK-1732           
1 46584U 20070BE  22042.57494317  .00005818  00000+0  40888-3 0  9998
2 46584  53.0565 352.5320 0001610  72.3765 287.7400 15.06427653 75640
STARLINK-1736           
1 46585U 20070BF  22042.26164476  .00003178  00000+0  23208-3 0  9999
2 46585  53.0557 353.9463 0001601  73.6014 286.5151 15.06409192 75598
STARLINK-1737           
1 46586U 20070BG  22042.58230755  .00005977  00000+0  41955-3 0  9997
2 46586  53.0559 352.5099 0001538  70.6682 289.4473 15.06421055 75320
STARLINK-1746           
1 46588U 20070BJ  22042.56387941  .00006279  00000+0  43973-3 0  9995
2 46588  53.0571 352.5817 0001715  63.1798 296.9366 15.06428261 75641
STARLINK-1749           
1 46589U 20070BK  22042.55651417  .00005781  00000+0  40636-3 0  9997
2 46589  53.0558 352.6181 0001839  61.4693 298.6481 15.06428383 75635
STARLINK-1754           
1 46590U 20070BL  22042.82196584  .01067268  00000+0  10046-1 0  9997
2 46590  53.0556 245.6776 0001511 108.0500 252.0679 15.64116353 77144
STARLINK-1755           
1 46591U 20070BM  22042.54545800  .00004349  00000+0  31049-3 0  9994
2 46591  53.0546 352.6732 0001614  70.5335 289.5829 15.06426433 74696
FLOCK 4V-21             
1 46596U 20061BK  22042.48147515  .00008635  00000+0  42907-3 0  9990
2 46596  97.4067 116.0532 0004168 169.0932 191.0393 15.17886795 73498
FLOCK 4V-18             
1 46597U 20061BG  22042.47218659  .00019645  00000+0  96740-3 0  9995
2 46597  97.4191 116.5582 0006530 196.9771 163.1245 15.17992314 74708
FLOCK 4V-19             
1 46609U 20061BH  22042.50797058  .00017765  00000+0  87716-3 0  9992
2 46609  97.4075 116.2054 0003514 167.9946 192.1373 15.17932887 74270
GAOFEN 13               
1 46610U 20071A   22042.51709096 -.00000358  00000+0  00000+0 0  9999
2 46610   0.8089 273.0777 0003640 243.5506 288.8434  1.00276100  5004
FLOCK 4V-20             
1 46612U 20061BJ  22042.50328274  .00005836  00000+0  29013-3 0  9998
2 46612  97.4176 116.4266 0006815 202.3250 157.7689 15.18000438 73772
STARLINK-1715           
1 46671U 20073B   22042.55097406  .00011067  00000+0  76035-3 0  9990
2 46671  53.0539  82.6459 0001659  54.0624 306.0518 15.06416960 72917
STARLINK-1716           
1 46672U 20073C   22042.79011498  .00004211  00000+0  30128-3 0  9990
2 46672  53.0537  76.5602 0001505  65.5780 294.5366 15.06418801 73502
STARLINK-1717           
1 46673U 20073D   22042.82649117  .00001311  00000+0  10683-3 0  9992
2 46673  53.0550  91.4148 0001552  68.4661 291.6493 15.06418375 73292
STARLINK-1718           
1 46674U 20073E   22042.81592645  .00000773  00000+0  70806-4 0  9990
2 46674  53.0539  76.4600 0001746  71.6963 288.4216 15.06407801 73505
